[{"OBJECT_NAME":"COSMO-SKYMED 3","OBJECT_ID":"2008-054A","EPOCH":"2026-03-09T22:03:15.183936","MEAN_MOTION":15.06259488,"ECCENTRICITY":0.00143526,"INCLINATION":97.8419,"RA_OF_ASC_NODE":285.8111,"ARG_OF_PERICENTER":240.3641,"MEAN_ANOMALY":119.6157,"EPHEMERIS_TYPE":0,"CLASSIFICATION_TYPE":"U","NORAD_CAT_ID":33412,"ELEMENT_SET_NO":999,"REV_AT_EPOCH":94199,"BSTAR":0.00061875413,"MEAN_MOTION_DOT":9.042e-5,"MEAN_MOTION_DDOT":0},{"OBJECT_NAME":"STARLINK-6030","OBJECT_ID":"2023-046Q","EPOCH":"2026-03-08T14:54:09.315360","MEAN_MOTION":15.0253491,"ECCENTRICITY":0.00011807,"INCLINATION":43.0021,"RA_OF_ASC_NODE":164.5463,"ARG_OF_PERICENTER":256.1191,"MEAN_ANOMALY":103.952,"EPHEMERIS_TYPE":0,"CLASSIFICATION_TYPE":"U","NORAD_CAT_ID":56107,"ELEMENT_SET_NO":999,"REV_AT_EPOCH":16190,"BSTAR":3.118355e-6,"MEAN_MOTION_DOT":-1.61e-6,"MEAN_MOTION_DDOT":0}]
